STARLINK-34781          
1 65073U 25165T   25230.48631131  .00032129  00000+0  58950-3 0  9995
2 65073  97.6037 303.2164 0000959  87.4372 272.6988 15.49216792  3874
STARLINK-34780          
1 65074U 25165U   25230.48595456  .00018352  00000+0  33816-3 0  9991
2 65074  97.6039 303.2171 0001206 103.5477 256.5908 15.49209674  3871
CREW DRAGON 11          
1 65077U 25166A   25229.82509125  .00009694  00000+0  17767-3 0  9995
2 65077  51.6354   1.5604 0003462 232.3943 127.6732 15.49989447  2143
STARLINK-34771          
1 65078U 25167A   25229.91670139  .00013655  00000+0  97489-4 0  9993
2 65078  53.1579 260.8692 0000986  84.1068 292.4748 15.74161742  3413
STARLINK-34634          
1 65079U 25167B   25230.16670139 -.00058332  00000+0 -39633-3 0  9992
2 65079  53.1581 259.6253 0001095  93.0866 262.9606 15.74212990  3386
STARLINK-34267          
1 65080U 25167C   25230.50003472  .00048962  00000+0  33722-3 0  9991
2 65080  53.1584 257.9692 0001143  78.0346  10.0482 15.74150304  3484
STARLINK-34561          
1 65081U 25167D   25230.50003472  .00033845  00000+0  23471-3 0  9996
2 65081  53.1583 257.9654 0001191  84.8372   5.1583 15.74163998  3489
STARLINK-34626          
1 65082U 25167E   25230.50003472 -.01610991  00000+0 -13854-1 0  9995
2 65082  53.1593 257.9646 0001052  69.2075  21.1872 15.71547424  3481
STARLINK-34247          
1 65083U 25167F   25230.16670139 -.00061367  00000+0 -41703-3 0  9990
2 65083  53.1584 259.6134 0001258  96.7560 265.0158 15.74228712  3435
STARLINK-34601          
1 65084U 25167G   25229.91670139  .00004324  00000+0  33839-4 0  9992
2 65084  53.1580 260.8455 0001207 112.7186 275.3646 15.74164603  3354
STARLINK-34792          
1 65085U 25167H   25229.91670139  .00026293  00000+0  18352-3 0  9994
2 65085  53.1581 260.8414 0001229  82.9243 307.0767 15.74155460  3366
STARLINK-34822          
1 65086U 25167J   25229.91670139  .00014797  00000+0  10527-3 0  9997
2 65086  53.1581 260.8373 0001098  81.7815 310.1333 15.74162638  3412
STARLINK-34686          
1 65087U 25167K   25230.50003472  .00032599  00000+0  22624-3 0  9996
2 65087  53.1584 257.9407 0001176  75.5979  25.8980 15.74165827  3444
STARLINK-34594          
1 65088U 25167L   25229.91670139  .00019416  00000+0  13673-3 0  9997
2 65088  53.1582 260.8290 0001151  93.1480 302.6021 15.74159218  3395
STARLINK-34665          
1 65089U 25167M   25229.91670139  .00015968  00000+0  11328-3 0  9991
2 65089  53.1580 260.8251 0001083  95.8996 301.7729 15.74155000  3363
STARLINK-34673          
1 65090U 25167N   25229.91670139 -.00010926  00000+0 -70443-4 0  9998
2 65090  53.1579 260.8212 0000966 120.0428 279.5322 15.74176420  3393
STARLINK-34648          
1 65091U 25167P   25229.91670139 -.00018891  00000+0 -12504-3 0  9991
2 65091  53.1579 260.8174 0001110 118.9652 282.5315 15.74177572  3359
STARLINK-34640          
1 65092U 25167Q   25229.91670139 -.00015763  00000+0 -10356-3 0  9990
2 65092  53.1579 260.8130 0001217  89.1453 314.2642 15.74181578  3355
STARLINK-34266          
1 65093U 25167R   25230.50003472  .00052495  00000+0  36111-3 0  9996
2 65093  53.1583 257.9164 0001106  79.3828  33.6210 15.74149281  3481
STARLINK-34769          
1 65094U 25167S   25229.91670139  .00024218  00000+0  16941-3 0  9991
2 65094  53.1581 260.8046 0001183  96.2690 310.9858 15.74156489  3366
STARLINK-34768          
1 65095U 25167T   25229.91670139  .00003894  00000+0  30880-4 0  9998
2 65095  53.1581 260.8004 0001201 111.2854 297.8625 15.74180461  3353
STARLINK-34759          
1 65096U 25167U   25229.91670139  .00013309  00000+0  95133-4 0  9993
2 65096  53.1582 260.7965 0001105  92.9043 318.1798 15.74162502  3352
STARLINK-34741          
1 65097U 25167V   25229.91670139 -.00018747  00000+0 -12404-3 0  9996
2 65097  53.1581 260.7928 0001198 110.7179 302.2732 15.74179678  3356
STARLINK-34764          
1 65098U 25167W   25230.50003472  .00036394  00000+0  25204-3 0  9992
2 65098  53.1586 257.8919 0001095 101.4544  23.0464 15.74158988  3225
STARLINK-34815          
1 65099U 25167X   25229.91670139  .00006795  00000+0  50702-4 0  9990
2 65099  53.1582 260.7885 0001258  88.0484 326.8663 15.74167648  3353
STARLINK-34814          
1 65100U 25167Y   25230.50003472  .00214142  00000+0  14287-2 0  9993
2 65100  53.1585 257.8883 0001061  93.8256  32.5864 15.74203213  3383
STARLINK-34285          
1 65101U 25167Z   25229.91670139  .00017663  00000+0  12481-3 0  9991
2 65101  53.1586 260.7770 0001121  95.5681 325.1060 15.74157530  3414
STARLINK-34857          
1 65102U 25167AA  25229.91670139 -.00020727  00000+0 -13762-3 0  9992
2 65102  53.1587 260.7688 0001033  92.0364 332.4588 15.74180782  3350
STARLINK-34887          
1 65103U 25167AB  25229.91670139 -.00021442  00000+0 -14251-3 0  9992
2 65103  53.1585 260.7729 0001076  99.7698 322.8091 15.74183926  3137
STARLINK-34481          
1 65104U 25167AC  25230.16670139 -.00045493  00000+0 -30777-3 0  9995
2 65104  53.1588 259.5248 0001234  82.2705 321.6982 15.74205563  3177
STARLINK-34545          
1 65105U 25167AD  25230.50003472  .00048611  00000+0  33491-3 0  9993
2 65105  53.1587 257.8683 0001163  73.7873  62.2222 15.74146022  3442
HULIANWANG DIGUI-49     
1 65106U 25168A   25230.55695349  .00000027  00000+0  12340-3 0  9999
2 65106  50.0058   1.0544 0009949 270.7080  89.2682 13.98034572  1971
HULIANWANG DIGUI-50     
1 65107U 25168B   25230.41229432 -.00000002  00000+0  10267-3 0  9991
2 65107  50.0024   1.6103 0009782 267.2632  92.7150 13.98270490  1959
HULIANWANG DIGUI-51     
1 65108U 25168C   25230.41229051  .00000001  00000+0  10478-3 0  9991
2 65108  50.0065   1.6236 0009731 268.5741  91.4046 13.98294278  1951
HULIANWANG DIGUI-52     
1 65109U 25168D   25230.48331279 -.00000023  00000+0  88098-4 0  9994
2 65109  50.0059   1.3308 0009207 275.9688  84.0165 13.98328252  1963
HULIANWANG DIGUI-53     
1 65110U 25168E   25230.48223442 -.00000006  00000+0  99756-4 0  9992
2 65110  50.0067   1.3284 0008207 273.2991  86.6972 13.98344989  1963
HULIANWANG DIGUI-54     
1 65111U 25168F   25230.48148310 -.00000020  00000+0  89435-4 0  9992
2 65111  50.0014   1.3063 0008368 273.7904  86.2042 13.98495603  1962
HULIANWANG DIGUI-55     
1 65112U 25168G   25230.48140781 -.00000017  00000+0  91897-4 0  9998
2 65112  50.0021   1.3080 0008744 265.3651  94.6253 13.98516520  1963
HULIANWANG DIGUI-56     
1 65113U 25168H   25230.47998122 -.00000016  00000+0  92429-4 0  9999
2 65113  50.0019   1.2981 0007557 268.1343  91.8694 13.98591620  1962
HULIANWANG DIGUI-57     
1 65114U 25168J   25230.47880880 -.00000006  00000+0  99302-4 0  9997
2 65114  50.0042   1.3008 0006900 272.0836  87.9276 13.98724226  1975
CZ-12 R/B               
1 65115U 25168K   25229.66888412 -.00000219  00000+0 -30319-4 0  9996
2 65115  49.9847   3.0140 0076635 161.0568 199.3220 14.16454769  1883
QPS-SAR-12 (KUSHINADA-I)
1 65116U 25169A   25230.47569112  .00003633  00000+0  32719-3 0  9998
2 65116  42.0113 238.3018 0005770 352.2520   7.8215 14.96826629  1989
ELECTRON KICK STAGE R/B 
1 65117U 25169B   25229.93780384  .00003674  00000+0  32671-3 0  9996
2 65117  42.0112 241.1919 0007137 349.5424  10.5252 14.97300946  1906
ELECTRON R/B            
1 65118U 25169C   25230.31482735  .00696360  72999-5  14286-2 0  9993
2 65118  42.0278 231.7683 0216380 346.8667  12.6608 15.68520310  2057
GEESAT-4 A              
1 65119U 25170A   25230.46095849  .00002174  00000+0  27264-3 0  9991
2 65119  49.9871 139.6385 0016270 334.2492  25.7636 14.85908852  1460
GEESAT-4 B              
1 65120U 25170B   25230.45367454  .00002465  00000+0  27261-3 0  9996
2 65120  49.9853 139.5928 0012950 331.3859  28.6371 14.90685126  1460
GEESAT-4 C              
1 65121U 25170C   25230.45335680  .00002458  00000+0  27111-3 0  9999
2 65121  49.9880 139.5933 0012537 328.2658  31.7526 14.90811719  1455
GEESAT-4 D              
1 65122U 25170D   25230.45285293  .00002291  00000+0  25377-3 0  9991
2 65122  49.9835 139.5877 0013787 337.8940  22.1405 14.90898141  1455
GEESAT-4 E              
1 65123U 25170E   25229.18157681  .00002200  00000+0  26967-3 0  9995
2 65123  49.9911 145.5668 0022460 329.3259  30.6366 14.86762747  1269
GEESAT-4 F              
1 65124U 25170F   25230.45343325  .00002540  00000+0  28040-3 0  9991
2 65124  49.9823 139.5914 0013607 341.3542  18.6899 14.90655402  1453
GEESAT-4 G              
1 65125U 25170G   25230.45186247  .00002550  00000+0  27868-3 0  9998
2 65125  49.9899 139.5843 0014273 334.2057  25.8171 14.91052246  1451
GEESAT-4 H              
1 65126U 25170H   25230.45143048  .00002535  00000+0  27673-3 0  9998
2 65126  49.9826 139.5781 0014195 339.3532  20.6834 14.91114997  1451
GEESAT-4 J              
1 65127U 25170J   25230.45120951  .00000524  00000+0  76547-4 0  9998
2 65127  49.9899 139.5797 0014334 334.7769  25.2470 14.91150547  1453
GEESAT-4 K              
1 65128U 25170K   25223.54870774  .00005013  00000+0  51793-3 0  9999
2 65128  49.9852 171.9478 0014999 307.8486  52.1453 14.91515343   428
GEESAT-4 L              
1 65129U 25170L   25230.24974033  .00001274  00000+0  15086-3 0  9998
2 65129  49.9882 140.5189 0015806 337.2377  22.7862 14.91218024  1421
METOP-SGA1              
1 65159U 25172A   25229.94500797  .00000185  00000+0  10014-3 0  9996
2 65159  98.7078 289.2854 0007307 350.5987   9.5053 14.23704473   691
HULIANWANG DIGUI 8A     
1 65164U 25174A   25230.46918733  .00000039  00000+0  42247-4 0  9998
2 65164  86.5034 354.3950 0008658 281.7464  78.2708 13.41217834   701
HULIANWANG DIGUI 8B     
1 65165U 25174B   25230.46950156  .00000045  00000+0  53879-4 0  9994
2 65165  86.4995 354.3940 0009461 277.9939  82.0131 13.41269690   691
HULIANWANG DIGUI 8C     
1 65166U 25174C   25230.46966185  .00000047  00000+0  57749-4 0  9996
2 65166  86.5027 354.3960 0009132 279.9885  80.0227 13.41226896   693
